STARLINK-31070          
1 58639U 23203X   26068.01410120 -.00000845  00000+0 -21215-4 0  9995
2 58639  42.9993  71.2821 0000906 192.3964 167.6865 15.27571827123458
FLOCK 4G-3              
1 62639U 25009AG  26068.80174065  .00011494  00000+0  43389-3 0  9993
2 62639  97.4062 151.4068 0001320 293.2042  66.9058 15.27179310 63727
