[{"OBJECT_NAME":"STARLINK-31070","OBJECT_ID":"2023-203X","EPOCH":"2026-03-09T00:20:18.343680","MEAN_MOTION":15.27571827,"ECCENTRICITY":9.068e-5,"INCLINATION":42.9993,"RA_OF_ASC_NODE":71.2821,"ARG_OF_PERICENTER":192.3964,"MEAN_ANOMALY":167.6865,"EPHEMERIS_TYPE":0,"CLASSIFICATION_TYPE":"U","NORAD_CAT_ID":58639,"ELEMENT_SET_NO":999,"REV_AT_EPOCH":12345,"BSTAR":-2.1215314e-5,"MEAN_MOTION_DOT":-8.45e-6,"MEAN_MOTION_DDOT":0},{"OBJECT_NAME":"FLOCK 4G-3","OBJECT_ID":"2025-009AG","EPOCH":"2026-03-09T19:14:30.392160","MEAN_MOTION":15.2717931,"ECCENTRICITY":0.00013196,"INCLINATION":97.4062,"RA_OF_ASC_NODE":151.4068,"ARG_OF_PERICENTER":293.2042,"MEAN_ANOMALY":66.9058,"EPHEMERIS_TYPE":0,"CLASSIFICATION_TYPE":"U","NORAD_CAT_ID":62639,"ELEMENT_SET_NO":999,"REV_AT_EPOCH":6372,"BSTAR":0.0004338875,"MEAN_MOTION_DOT":0.00011494,"MEAN_MOTION_DDOT":0}]
